STARLINK-32474          
1 61260U 24175T   26068.61845015  .00002411  00000+0  93562-4 0  9992
2 61260  53.1598 194.2985 0001228  77.7745 282.3393 15.30183447 81449
NUSHSAT1                
1 63211U 25052B   26068.64700493  .00023034  00000+0  74857-3 0  9997
2 63211  97.4095 325.7239 0005501  84.7512 275.4357 15.31903202 54882
